0 GLOBALSTAR M052
1 25773U 99031D   13289.45305823 -.00000040  00000-0  86636-3 0  2809
2 25773 051.9871 300.6117 0002605 311.1351 219.8929 11.15010775660946
0 GLOBALSTAR M052
1 25773U 99031D   13293.48723633 -.00000077  00000-0 -38701-3 0  2812
2 25773 051.9871 291.4127 0002767 320.2660 210.7807 11.15010904661396
